{"type": "FeatureCollection", "features": [ {"type": "Feature", "properties": {"norad_id": 58662, "name": "TIANMU-1 21", "group": "weather", "lat": 71.6723839475936, "lon": -47.645853017075595, "alt_km": 465.6419181725141, "timestamp": "2025-12-21T16:47:54.372251+00:00", "meta": {"OBJECT_NAME": "TIANMU-1 21", "OBJECT_ID": "2023-208C", "EPOCH": "2025-12-21T13:11:51.949248", "MEAN_MOTION": 15.31724272, "ECCENTRICITY": 0.0006254, "INCLINATION": 97.4382, "RA_OF_ASC_NODE": 108.9748, "ARG_OF_PERICENTER": 223.2282, "MEAN_ANOMALY": 136.8469, "EPHEMERIS_TYPE": 0, "CLASSIFICATION_TYPE": "U", "NORAD_CAT_ID": 58662, "ELEMENT_SET_NO": 999, "REV_AT_EPOCH": 11034, "BSTAR": 0.00029149, "MEAN_MOTION_DOT": 8.856e-05, "MEAN_MOTION_DDOT": 0}, "tle": {"line1": "1 58662U 23208C   25355.54990682  .00008856  00000+0  29149-3 0  9999", "line2": "2 58662  97.4382 108.9748 0006254 223.2282 136.8469 15.31724272110347"}}, "geometry": {"type": "Point", "coordinates": [-47.645853017075595, 71.6723839475936]}}, {"type": "Feature", "properties": {"norad_id": 58663, "name": "TIANMU-1 22", "group": "weather", "lat": -78.61931327295976, "lon": -113.70067611125273, "alt_km": 488.1298684587082, "timestamp": "2025-12-21T16:47:54.372261+00:00", "meta": {"OBJECT_NAME": "TIANMU-1 22", "OBJECT_ID": "2023-208D", "EPOCH": "2025-12-21T12:30:49.726368", "MEAN_MOTION": 15.2774058, "ECCENTRICITY": 0.0002801, "INCLINATION": 97.4389, "RA_OF_ASC_NODE": 106.5971, "ARG_OF_PERICENTER": 240.4594, "MEAN_ANOMALY": 119.6366, "EPHEMERIS_TYPE": 0, "CLASSIFICATION_TYPE": "U", "NORAD_CAT_ID": 58663, "ELEMENT_SET_NO": 999, "REV_AT_EPOCH": 11017, "BSTAR": 0.00026076, "MEAN_MOTION_DOT": 6.993e-05, "MEAN_MOTION_DDOT": 0}, "tle": {"line1": "1 58663U 23208D   25355.52140887  .00006993  00000+0  26076-3 0  9998", "line2": "2 58663  97.4389 106.5971 0002801 240.4594 119.6366 15.27740580110179"}}, "geometry": {"type": "Point", "coordinates": [-113.70067611125273, -78.61931327295976]}}, {"type": "Feature", "properties": {"norad_id": 58700, "name": "TIANMU-1 15", "group": "weather", "lat": -70.9740412933997, "lon": -160.52453446672382, "alt_km": 496.2061634557231, "timestamp": "2025-12-21T16:47:54.372271+00:00", "meta": {"OBJECT_NAME": "TIANMU-1 15", "OBJECT_ID": "2024-004A", "EPOCH": "2025-12-21T12:23:23.535168", "MEAN_MOTION": 15.24513364, "ECCENTRICITY": 0.0005977, "INCLINATION": 97.4621, "RA_OF_ASC_NODE": 176.9527, "ARG_OF_PERICENTER": 252.7477, "MEAN_ANOMALY": 107.3106, "EPHEMERIS_TYPE": 0, "CLASSIFICATION_TYPE": "U", "NORAD_CAT_ID": 58700, "ELEMENT_SET_NO": 999, "REV_AT_EPOCH": 10868, "BSTAR": 0.00023216, "MEAN_MOTION_DOT": 5.64e-05, "MEAN_MOTION_DDOT": 0}, "tle": {"line1": "1 58700U 24004A   25355.51624462  .00005640  00000+0  23216-3 0  9991", "line2": "2 58700  97.4621 176.9527 0005977 252.7477 107.3106 15.24513364108685"}}, "geometry": {"type": "Point", "coordinates": [-160.52453446672382, -70.9740412933997]}}, {"type": "Feature", "properties": {"norad_id": 58701, "name": "TIANMU-1 16", "group": "weather", "lat": 9.771674249404356, "lon": 175.22473879665546, "alt_km": 495.1221348338504, "timestamp": "2025-12-21T16:47:54.372281+00:00", "meta": {"OBJECT_NAME": "TIANMU-1 16", "OBJECT_ID": "2024-004B", "EPOCH": "2025-12-21T12:01:46.404192", "MEAN_MOTION": 15.24540654, "ECCENTRICITY": 0.0004339, "INCLINATION": 97.456, "RA_OF_ASC_NODE": 176.3194, "ARG_OF_PERICENTER": 256.2793, "MEAN_ANOMALY": 103.7962, "EPHEMERIS_TYPE": 0, "CLASSIFICATION_TYPE": "U", "NORAD_CAT_ID": 58701, "ELEMENT_SET_NO": 999, "REV_AT_EPOCH": 10868, "BSTAR": 0.00022428, "MEAN_MOTION_DOT": 5.449e-05, "MEAN_MOTION_DDOT": 0}, "tle": {"line1": "1 58701U 24004B   25355.50123153  .00005449  00000+0  22428-3 0  9993", "line2": "2 58701  97.4560 176.3194 0004339 256.2793 103.7962 15.24540654108685"}}, "geometry": {"type": "Point", "coordinates": [175.22473879665546, 9.771674249404356]}}, {"type": "Feature", "properties": {"norad_id": 58702, "name": "TIANMU-1 17", "group": "weather", "lat": 80.53381998047686, "lon": 48.729782590136786, "alt_km": 486.9133998932939, "timestamp": "2025-12-21T16:47:54.372292+00:00", "meta": {"OBJECT_NAME": "TIANMU-1 17", "OBJECT_ID": "2024-004C", "EPOCH": "2025-12-21T13:13:44.536224", "MEAN_MOTION": 15.24584401, "ECCENTRICITY": 0.000351, "INCLINATION": 97.4596, "RA_OF_ASC_NODE": 176.7837, "ARG_OF_PERICENTER": 257.5171, "MEAN_ANOMALY": 102.5674, "EPHEMERIS_TYPE": 0, "CLASSIFICATION_TYPE": "U", "NORAD_CAT_ID": 58702, "ELEMENT_SET_NO": 999, "REV_AT_EPOCH": 10868, "BSTAR": 0.00021629, "MEAN_MOTION_DOT": 5.259e-05, "MEAN_MOTION_DDOT": 0}, "tle": {"line1": "1 58702U 24004C   25355.55120991  .00005259  00000+0  21629-3 0  9997", "line2": "2 58702  97.4596 176.7837 0003510 257.5171 102.5674 15.24584401108682"}}, "geometry": {"type": "Point", "coordinates": [48.729782590136786, 80.53381998047686]}}, {"type": "Feature", "properties": {"norad_id": 58703, "name": "TIANMU-1 18", "group": "weather", "lat": -6.9325612194669715, "lon": -3.784120337089474, "alt_km": 495.2806952863275, "timestamp": "2025-12-21T16:47:54.372306+00:00", "meta": {"OBJECT_NAME": "TIANMU-1 18", "OBJECT_ID": "2024-004D", "EPOCH": "2025-12-21T12:49:50.150208", "MEAN_MOTION": 15.2456894, "ECCENTRICITY": 0.0002862, "INCLINATION": 97.4613, "RA_OF_ASC_NODE": 176.9643, "ARG_OF_PERICENTER": 255.1905, "MEAN_ANOMALY": 104.9016, "EPHEMERIS_TYPE": 0, "CLASSIFICATION_TYPE": "U", "NORAD_CAT_ID": 58703, "ELEMENT_SET_NO": 999, "REV_AT_EPOCH": 10868, "BSTAR": 0.00021911, "MEAN_MOTION_DOT": 5.325e-05, "MEAN_MOTION_DDOT": 0}, "tle": {"line1": "1 58703U 24004D   25355.53460822  .00005325  00000+0  21911-3 0  9994", "line2": "2 58703  97.4613 176.9643 0002862 255.1905 104.9016 15.24568940108684"}}, "geometry": {"type": "Point", "coordinates": [-3.784120337089474, -6.9325612194669715]}}, {"type": "Feature", "properties": {"norad_id": 58990, "name": "INSAT-3DS", "group": "weather", "lat": -0.006676326774333528, "lon": 64.59714734651132, "alt_km": 35790.114068153875, "timestamp": "2025-12-21T16:47:54.372318+00:00", "meta": {"OBJECT_NAME": "INSAT-3DS", "OBJECT_ID": "2024-033A", "EPOCH": "2025-12-21T11:52:32.848032", "MEAN_MOTION": 1.00272048, "ECCENTRICITY": 0.0001102, "INCLINATION": 0.0546, "RA_OF_ASC_NODE": 102.5963, "ARG_OF_PERICENTER": 170.8016, "MEAN_ANOMALY": 77.1592, "EPHEMERIS_TYPE": 0, "CLASSIFICATION_TYPE": "U", "NORAD_CAT_ID": 58990, "ELEMENT_SET_NO": 999, "REV_AT_EPOCH": 4528, "BSTAR": 0, "MEAN_MOTION_DOT": -1.34e-06, "MEAN_MOTION_DDOT": 0}, "tle": {"line1": "1 58990U 24033A   25355.49482463 -.00000134  00000+0  00000+0 0  9990", "line2": "2 58990   0.0546 102.5963 0001102 170.8016  77.1592  1.00272048 45285"}}, "geometry": {"type": "Point", "coordinates": [64.59714734651132, -0.006676326774333528]}}, {"type": "Feature", "properties": {"norad_id": 59051, "name": "METEOR-M2 4", "group": "weather", "lat": -46.26872811495088, "lon": -38.34507291304117, "alt_km": 819.4884401863856, "timestamp": "2025-12-21T16:47:54.372370+00:00", "meta": {"OBJECT_NAME": "METEOR-M2 4", "OBJECT_ID": "2024-039A", "EPOCH": "2025-12-21T11:57:13.833792", "MEAN_MOTION": 14.22402535, "ECCENTRICITY": 0.0006581, "INCLINATION": 98.6779, "RA_OF_ASC_NODE": 312.2701, "ARG_OF_PERICENTER": 332.5822, "MEAN_ANOMALY": 27.5008, "EPHEMERIS_TYPE": 0, "CLASSIFICATION_TYPE": "U", "NORAD_CAT_ID": 59051, "ELEMENT_SET_NO": 999, "REV_AT_EPOCH": 9400, "BSTAR": 2.5294e-05, "MEAN_MOTION_DOT": 1.3e-07, "MEAN_MOTION_DDOT": 0}, "tle": {"line1": "1 59051U 24039A   25355.49807678  .00000013  00000+0  25294-4 0  9996", "line2": "2 59051  98.6779 312.2701 0006581 332.5822  27.5008 14.22402535 94002"}}, "geometry": {"type": "Point", "coordinates": [-38.34507291304117, -46.26872811495088]}}, {"type": "Feature", "properties": {"norad_id": 60133, "name": "GOES 19", "group": "weather", "lat": -0.006393084118784079, "lon": -92.71178773841193, "alt_km": 35783.86874562458, "timestamp": "2025-12-21T16:47:54.372387+00:00", "meta": {"OBJECT_NAME": "GOES 19", "OBJECT_ID": "2024-119A", "EPOCH": "2025-12-21T11:07:41.267712", "MEAN_MOTION": 1.00271762, "ECCENTRICITY": 9.18e-05, "INCLINATION": 0.0073, "RA_OF_ASC_NODE": 94.1992, "ARG_OF_PERICENTER": 227.8771, "MEAN_ANOMALY": 219.9412, "EPHEMERIS_TYPE": 0, "CLASSIFICATION_TYPE": "U", "NORAD_CAT_ID": 60133, "ELEMENT_SET_NO": 999, "REV_AT_EPOCH": 518, "BSTAR": 0, "MEAN_MOTION_DOT": -2.26e-06, "MEAN_MOTION_DDOT": 0}, "tle": {"line1": "1 60133U 24119A   25355.46367208 -.00000226  00000+0  00000+0 0  9995", "line2": "2 60133   0.0073  94.1992 0000918 227.8771 219.9412  1.00271762  5189"}}, "geometry": {"type": "Point", "coordinates": [-92.71178773841193, -0.006393084118784079]}}, {"type": "Feature", "properties": {"norad_id": 65815, "name": "FENGYUN 3H", "group": "weather", "lat": 66.74382659226872, "lon": 135.86584782419033, "alt_km": 818.59587267187, "timestamp": "2025-12-21T16:47:54.372399+00:00", "meta": {"OBJECT_NAME": "FENGYUN 3H", "OBJECT_ID": "2025-219A", "EPOCH": "2025-12-21T11:12:03.669696", "MEAN_MOTION": 14.19906837, "ECCENTRICITY": 7.52e-05, "INCLINATION": 98.6597, "RA_OF_ASC_NODE": 294.868, "ARG_OF_PERICENTER": 105.6599, "MEAN_ANOMALY": 254.466, "EPHEMERIS_TYPE": 0, "CLASSIFICATION_TYPE": "U", "NORAD_CAT_ID": 65815, "ELEMENT_SET_NO": 999, "REV_AT_EPOCH": 1216, "BSTAR": 4.6113e-05, "MEAN_MOTION_DOT": 5.5e-07, "MEAN_MOTION_DDOT": 0}, "tle": {"line1": "1 65815U 25219A   25355.46670914  .00000055  00000+0  46113-4 0  9999", "line2": "2 65815  98.6597 294.8680 0000752 105.6599 254.4660 14.19906837 12162"}}, "geometry": {"type": "Point", "coordinates": [135.86584782419033, 66.74382659226872]}}]}